COSMOS 2058             
1 20465U 90010A   26201.28904016  .00002074  00000+0  11848-3 0  9995
2 20465  82.4675 276.7078 0008366 228.9356 131.1152 15.12175413962276
SL-14 R/B               
1 20466U 90010B   26201.88919255  .00000237  00000+0  25723-4 0  9990
2 20466  82.5039 142.2961 0018732 217.3003 142.6913 14.83665231948230
SL-14 R/B               
1 20511U 90018B   26201.76521513  .00000200  00000+0  22039-4 0  9999
2 20511  82.5213  98.7239 0016608  19.2771 340.9068 14.82236208942290
HST                     
1 20580U 90037B   26201.71489371  .00003416  00000+0  10306-3 0  9991
2 20580  28.4721 211.3592 0002083 156.9288 203.1402 15.31093862793713
SL-16 R/B               
1 20625U 90046B   26201.87996571  .00000278  00000+0  16799-3 0  9998
2 20625  70.9996  18.1833 0012239 104.2658 255.9824 14.15028387867234
COSMOS 2084             
1 20663U 90055A   26201.85450597  .00000964  00000+0  79161-4 0  9996
2 20663  62.7874 241.1678 0008802 323.2574  36.7922 15.06235842956371
SL-6 R/B(2)             
1 20666U 90055D   26201.89017220  .00001348  00000+0  10943-3 0  9994
2 20666  62.7810 160.6785 0046005   9.7896 350.4089 15.04103757958221
SL-8 R/B                
1 20775U 90078B   26201.90326410  .00008400  00000+0  23808-3 0  9996
2 20775  82.9031 131.1426 0342916 284.0796  72.2540 14.93667638829153
SL-8 R/B                
1 21088U 91006B   26201.76846068  .00000069  00000+0  54158-4 0  9992
2 21088  82.9402  71.0485 0023104  25.4426  46.0638 13.77510014782399
OKEAN-3                 
1 21397U 91039A   26201.43990648  .00001678  00000+0  11473-3 0  9998
2 21397  82.5150 208.1315 0012899 234.3620 125.6406 15.05452780885006
COSMOS 2151             
1 21422U 91042A   26201.80327583  .00001005  00000+0  77536-4 0  9991
2 21422  82.4983 315.2393 0011443 335.8148  24.2537 15.00522860883155
SL-14 R/B               
1 21423U 91042B   26201.77892490  .00000180  00000+0  19746-4 0  9994
2 21423  82.4929  95.3951 0017465 158.8562 201.3378 14.81919872872784
ERS-1                   
1 21574U 91050A   26201.94533053  .00000227  00000+0  87155-4 0  9997
2 21574  98.7797 223.4678 0032289 164.9217 195.2940 14.39536278834906
ARIANE 40 R/B           
1 21610U 91050F   26201.88801826  .00000132  00000+0  52011-4 0  9995
2 21610  98.1858 248.9891 0003880  48.5413 311.6111 14.42973799838206
INTERCOSMOS 25          
1 21819U 91086A   26201.12842419  .00000538  00000+0  10286-3 0  9992
2 21819  82.6000 229.8758 1484817 191.2811 165.1215 12.12243073512730
SL-8 R/B                
1 21876U 92008B   26201.93765288  .00000130  00000+0  11777-3 0  9991
2 21876  82.9279 168.6945 0035933 121.0490 293.5087 13.75984858727741
SL-8 R/B                
1 21938U 92020B   26201.96113937 -.00000014  00000+0 -29612-4 0  9996
2 21938  82.9275  54.7657 0027795 286.7168 186.9015 13.75549796719452
USA 81                  
1 21949U 92023A   26201.52632677  .00000089  00000+0  25448-4 0  9993
2 21949  85.0047  54.7597 0001748  64.8666 295.2708 14.32405784113808
COSMOS 2219             
1 22219U 92076A   26201.93224854 -.00000286  00000+0 -12526-3 0  9994
2 22219  71.0607  99.5312 0018595 348.9214  11.1497 14.14106453737219
SL-16 R/B               
1 22220U 92076B   26201.93922961 -.00000189  00000+0 -70126-4 0  9993
2 22220  70.9997 267.6817 0015036 254.8548 277.6465 14.16877696740709
COSMOS 2221             
1 22236U 92080A   26201.90383467  .00001034  00000+0  88271-4 0  9992
2 22236  82.5051 151.4616 0015918 102.7793 257.5210 14.96614356800718
SL-16 R/B               
1 22285U 92093B   26201.88106626 -.00000221  00000+0 -88870-4 0  9991
2 22285  71.0212  84.6592 0002163 118.2594 241.8748 14.15463686732000
COSMOS 2228             
1 22286U 92094A   26201.89526430  .00001078  00000+0  89575-4 0  9995
2 22286  82.5185 109.7554 0016741 208.6787 151.3517 14.97686096795997
SL-16 R/B               
1 22566U 93016B   26201.72335809  .00000276  00000+0  16585-3 0  9990
2 22566  71.0087 295.7699 0008560 128.0911 232.0985 14.15315995720993
COSMOS 2242             
1 22626U 93024A   26201.80336378  .00000894  00000+0  75260-4 0  9999
2 22626  82.5202 139.3817 0015036 212.3320 147.6983 14.96994581800304
SL-16 R/B               
1 22803U 93059B   26201.94495022  .00000209  00000+0  12699-3 0  9997
2 22803  70.9902  90.1157 0016990 359.9541   0.1578 14.17250445698410
ARIANE 40 R/B           
1 22830U 93061H   26201.79261051  .00000064  00000+0  39189-4 0  9999
2 22830  98.4801 267.9489 0009623 247.1360 112.8809 14.32919791713168
COSMOS 2278             
1 23087U 94023A   26201.91096995  .00000200  00000+0  12920-3 0  9995
2 23087  71.0516 256.3670 0009317 197.0727 163.0083 14.14394946663645
SL-16 R/B               
1 23088U 94023B   26201.89765848  .00000331  00000+0  19564-3 0  9999
2 23088  70.9995 151.1363 0001266 105.2236 254.9026 14.15027661664935
SL-16 R/B               
1 23343U 94074B   26201.96315400  .00000238  00000+0  38395-4 0  9992
2 23343  97.6984 227.2752 0007557 137.6046 285.1762 14.79527376706957
