OBJECT_NAME,OBJECT_ID,EPOCH,MEAN_MOTION,ECCENTRICITY,INCLINATION,RA_OF_ASC_NODE,ARG_OF_PERICENTER,MEAN_ANOMALY,EPHEMERIS_TYPE,CLASSIFICATION_TYPE,NORAD_CAT_ID,ELEMENT_SET_NO,REV_AT_EPOCH,BSTAR,MEAN_MOTION_DOT,MEAN_MOTION_DDOT
COSMOS 2058,1990-010A,2026-07-20T06:56:13.069824,15.12175413,.00083665,82.4675,276.7078,228.9356,131.1152,0,U,20465,999,96227,.11848245E-3,.2074E-4,0
SL-14 R/B,1990-010B,2026-07-20T21:20:26.236320,14.83665231,.00187326,82.5039,142.2961,217.3003,142.6913,0,U,20466,999,94823,.25723115E-4,.237E-5,0
SL-14 R/B,1990-018B,2026-07-20T18:21:54.587232,14.82236208,.00166089,82.5213,98.7239,19.2771,340.9068,0,U,20511,999,94229,.22039431E-4,.2E-5,0
HST,1990-037B,2026-07-20T17:09:26.816544,15.31093862,.00020838,28.4721,211.3592,156.9288,203.1402,0,U,20580,999,79371,.10306067E-3,.3416E-4,0
SL-16 R/B,1990-046B,2026-07-20T21:07:09.037344,14.15028387,.00122395,70.9996,18.1833,104.2658,255.9824,0,U,20625,999,86723,.16798766E-3,.278E-5,0
COSMOS 2084,1990-055A,2026-07-20T20:30:29.315808,15.06235842,.00088027,62.7874,241.1678,323.2574,36.7922,0,U,20663,999,95637,.79160933E-4,.964E-5,0
SL-6 R/B(2),1990-055D,2026-07-20T21:21:50.878080,15.04103757,.00460052,62.7810,160.6785,9.7896,350.4089,0,U,20666,999,95822,.10942667E-3,.1348E-4,0
SL-8 R/B,1990-078B,2026-07-20T21:40:42.018240,14.93667638,.03429165,82.9031,131.1426,284.0796,72.2540,0,U,20775,999,82915,.23807633E-3,.84E-4,0
SL-8 R/B,1991-006B,2026-07-20T18:26:35.002752,13.77510014,.00231042,82.9402,71.0485,25.4426,46.0638,0,U,21088,999,78239,.54158297E-4,.69E-6,0
OKEAN-3,1991-039A,2026-07-20T10:33:27.919872,15.05452780,.0012899,82.5150,208.1315,234.3620,125.6406,0,U,21397,999,88500,.11472622E-3,.1678E-4,0
COSMOS 2151,1991-042A,2026-07-20T19:16:43.031712,15.00522860,.00114438,82.4983,315.2393,335.8148,24.2537,0,U,21422,999,88315,.77536486E-4,.1005E-4,0
SL-14 R/B,1991-042B,2026-07-20T18:41:39.111360,14.81919872,.00174655,82.4929,95.3951,158.8562,201.3378,0,U,21423,999,87278,.19745835E-4,.18E-5,0
ERS-1,1991-050A,2026-07-20T22:41:16.557792,14.39536278,.00322896,98.7797,223.4678,164.9217,195.2940,0,U,21574,999,83490,.8715512E-4,.227E-5,0
ARIANE 40 R/B,1991-050F,2026-07-20T21:18:44.777664,14.42973799,.00038805,98.1858,248.9891,48.5413,311.6111,0,U,21610,999,83820,.52010698E-4,.132E-5,0
INTERCOSMOS 25,1991-086A,2026-07-20T03:04:55.850016,12.12243073,.14848177,82.6000,229.8758,191.2811,165.1215,0,U,21819,999,51273,.10285997E-3,.538E-5,0
SL-8 R/B,1992-008B,2026-07-20T22:30:13.208832,13.75984858,.0035933,82.9279,168.6945,121.0490,293.5087,0,U,21876,999,72774,.11776628E-3,.13E-5,0
SL-8 R/B,1992-020B,2026-07-20T23:04:02.441568,13.75549796,.00277952,82.9275,54.7657,286.7168,186.9015,0,U,21938,999,71945,-.29612111E-4,-.14E-6,0
USA 81,1992-023A,2026-07-20T12:37:54.632928,14.32405784,.0001748,85.0047,54.7597,64.8666,295.2708,0,U,21949,999,11380,.25448E-4,.89E-6,0
COSMOS 2219,1992-076A,2026-07-20T22:22:26.273856,14.14106453,.00185957,71.0607,99.5312,348.9214,11.1497,0,U,22219,999,73721,-.12525585E-3,-.286E-5,0
SL-16 R/B,1992-076B,2026-07-20T22:32:29.438304,14.16877696,.00150361,70.9997,267.6817,254.8548,277.6465,0,U,22220,999,74070,-.70125659E-4,-.189E-5,0
COSMOS 2221,1992-080A,2026-07-20T21:41:31.315488,14.96614356,.00159184,82.5051,151.4616,102.7793,257.5210,0,U,22236,999,80071,.88270958E-4,.1034E-4,0
SL-16 R/B,1992-093B,2026-07-20T21:08:44.124864,14.15463686,.0002163,71.0212,84.6592,118.2594,241.8748,0,U,22285,999,73200,-.88870345E-4,-.221E-5,0
COSMOS 2228,1992-094A,2026-07-20T21:29:10.835520,14.97686096,.00167416,82.5185,109.7554,208.6787,151.3517,0,U,22286,999,79599,.89575044E-4,.1078E-4,0
SL-16 R/B,1993-016B,2026-07-20T17:21:38.138976,14.15315995,.00085606,71.0087,295.7699,128.0911,232.0985,0,U,22566,999,72099,.16584589E-3,.276E-5,0
COSMOS 2242,1993-024A,2026-07-20T19:16:50.630592,14.96994581,.0015036,82.5202,139.3817,212.3320,147.6983,0,U,22626,999,80030,.75260091E-4,.894E-5,0
SL-16 R/B,1993-059B,2026-07-20T22:40:43.699008,14.17250445,.00169901,70.9902,90.1157,359.9541,0.1578,0,U,22803,999,69841,.12699445E-3,.209E-5,0
ARIANE 40 R/B,1993-061H,2026-07-20T19:01:21.548064,14.32919791,.00096231,98.4801,267.9489,247.1360,112.8809,0,U,22830,999,71316,.39189344E-4,.64E-6,0
COSMOS 2278,1994-023A,2026-07-20T21:51:47.803680,14.14394946,.00093177,71.0516,256.3670,197.0727,163.0083,0,U,23087,999,66364,.12920296E-3,.2E-5,0
SL-16 R/B,1994-023B,2026-07-20T21:32:37.692672,14.15027661,.00012663,70.9995,151.1363,105.2236,254.9026,0,U,23088,999,66493,.19563516E-3,.331E-5,0
SL-16 R/B,1994-074B,2026-07-20T23:06:56.505600,14.79527376,.00075576,97.6984,227.2752,137.6046,285.1762,0,U,23343,999,70695,.38394716E-4,.238E-5,0
